NAVSTAR 77 (USA 289)    
1 43873U 18109A   24281.01422176  .00000044  00000+0  00000+0 0  9990
2 43873  55.3414 116.6077 0031086 191.7798 340.4477  2.00560586 42677
